IRIDIUM 116             
1 43072U 17083C   25138.46471350  .00000004  00000+0 -55354-5 0  9995
2 43072  86.3946 127.0339 0002466  85.9342 274.2136 14.34217486387595
IRIDIUM 130             
1 43073U 17083D   25138.50276900 -.00000004  00000+0 -85420-5 0  9993
2 43073  86.3956 127.2549 0002588  92.0032 268.1460 14.34217451387541
IRIDIUM 151             
1 43074U 17083E   25137.50063922  .00000028  00000+0  29467-5 0  9994
2 43074  86.3944 127.4857 0002568  86.7467 273.4022 14.34217584387420
IRIDIUM 134             
1 43075U 17083F   25138.51545269  .00000138  00000+0  42265-4 0  9998
2 43075  86.3946 127.0642 0002581  93.0195 267.1297 14.34218608387539
IRIDIUM 137             
1 43076U 17083G   25138.45836970  .00000025  00000+0  19304-5 0  9998
2 43076  86.3948 127.1727 0002757  77.3612 282.7892 14.34217406387596
IRIDIUM 141             
1 43077U 17083H   25138.52179113  .00000074  00000+0  19381-4 0  9994
2 43077  86.3943 126.9993 0002065  90.5595 269.5838 14.34217773387605
IRIDIUM 153             
1 43078U 17083J   25137.84605772  .00000130  00000+0  39390-4 0  9999
2 43078  86.3943  95.7524 0001880  94.7155 265.4256 14.34217717388610
IRIDIUM 131             
1 43079U 17083K   25138.23003610  .00000028  00000+0  29348-5 0  9996
2 43079  86.3948 127.2810 0002165  85.8100 274.3343 14.34217634387492
